IRIDIUM 119             
1 42959U 17061E   23227.08742451  .00000283  00000+0  93829-4 0  9998
2 42959  86.3939  98.6968 0002214  92.0782 268.0668 14.34217881306163
IRIDIUM 107             
1 42960U 17061F   23227.17623467  .00000316  00000+0  10573-3 0  9996
2 42960  86.3939  98.6745 0002358  88.0568 272.0898 14.34219771306197
IRIDIUM 132             
1 42961U 17061G   23227.25234852  .00000304  00000+0  10131-3 0  9999
2 42961  86.3939  98.6291 0002321  89.7687 270.3774 14.34218269306199
IRIDIUM 136             
1 42962U 17061H   23228.19104970  .00000309  00000+0  10334-3 0  9991
2 42962  86.3938  98.2384 0001896  90.1277 270.0136 14.34217367306349
IRIDIUM 139             
1 42963U 17061J   23228.19739257  .00000313  00000+0  10460-3 0  9999
2 42963  86.3939  98.2815 0002330  88.1333 272.0129 14.34219274306358
IRIDIUM 125             
1 42964U 17061K   23228.18470714  .00000310  00000+0  10354-3 0  9998
2 42964  86.3940  98.3288 0002246  92.1658 267.9795 14.34219407306368
IRIDIUM 135             
1 43070U 17083A   23228.01929244  .00000112  00000+0  33037-4 0  9994
2 43070  86.3960  35.0496 0002276  82.4055 277.7400 14.34218539295638
IRIDIUM 138             
1 43071U 17083B   23228.46328694  .00000117  00000+0  34736-4 0  9998
2 43071  86.3951  34.6195 0002178  96.5827 263.5616 14.34218582295689
